BEIDOU-2 IGSO-5         
1 37948U 11073A   26169.66754444 -.00000192  00000+0  00000+0 0  9998
2 37948  47.6748 271.5267 0113971 221.7702 105.6518  1.00272695 53143
LUCH-5A                 
1 37951U 11074B   26173.62464274 -.00000052  00000+0  00000+0 0  9998
2 37951   8.7684  73.7290 0002538  28.1178 200.7535  1.00271508 53108
BEIDOU-2 G5             
1 38091U 12008A   26173.89028417  .00000058  00000+0  00000+0 0  9991
2 38091   3.5890  69.6736 0008944 274.3935 306.1786  1.00273934 52426
BEIDOU-2 M3             
1 38250U 12018A   26170.87348603 -.00000087  00000+0  00000+0 0  9999
2 38250  55.7552 304.7847 0020162 273.6567  86.1052  1.86229605 95992
BEIDOU-2 M4             
1 38251U 12018B   26172.41666900 -.00000098  00000+0  00000+0 0  9997
2 38251  55.6541 303.9461 0011367 274.9349  84.9285  1.86229230 96025
SES-5                   
1 38652U 12036A   26173.53161025  .00000036  00000+0  00000+0 0  9995
2 38652   0.0466 315.0978 0001946 134.3683  17.5956  1.00271557 44518
BEIDOU-2 M6             
1 38775U 12050B   26171.05246878 -.00000069  00000+0  00000+0 0  9999
2 38775  56.5467  62.7995 0013615 357.8468   2.1878  1.86230944 93364
GSAT-10                 
1 38779U 12051B   26173.83138434 -.00000162  00000+0  00000+0 0  9994
2 38779   0.0661 260.5064 0007983 188.8869 203.9300  1.00272246 50159
NAVSTAR 67 (USA 239)    
1 38833U 12053A   26173.30186744  .00000063  00000+0  00000+0 0  9995
2 38833  53.5869 143.3898 0180588  65.8280 296.0242  2.00567577 99549
GSAT0103 (GALILEO-FM3)  
1 38857U 12055A   26173.16832235 -.00000024  00000+0  00000+0 0  9998
2 38857  55.8093 101.4088 0004870 305.8797  54.0543  1.70473493 85094
BEIDOU-2 G6             
1 38953U 12059A   26173.83237564 -.00000174  00000+0  00000+0 0  9993
2 38953   4.4368  73.4690 0009813 326.0822 255.1504  1.00271396 49967
LUCH-5B                 
1 38977U 12061A   26173.38503000 -.00000142  00000+0  00000+0 0  9998
2 38977  10.4958  49.8329 0002364 144.2899 198.7873  1.00272227 49650
COSMOS 2485 [GLONASS-M] 
1 39155U 13019A   26173.07185831 -.00000057  00000+0  00000+0 0  9990
2 39155  65.4224  73.4404 0022976 233.5948 126.2265  2.13103126102387
NAVSTAR 68 (USA 242)    
1 39166U 13023A   26171.17464327 -.00000057  00000+0  00000+0 0  9996
2 39166  54.5016 268.8519 0141493  51.0455 310.2435  2.00563443 95941
IRNSS-1A                
1 39199U 13034A   26169.89544831  .00000051  00000+0  00000+0 0  9992
2 39199  35.7241  63.8469 0017589 183.2529  37.3106  1.00275723 47380
NAVSTAR 69 (USA 248)    
1 39533U 14008A   26173.66924921  .00000071  00000+0  00000+0 0  9990
2 39533  53.6555 149.0961 0084231 231.3612 127.8645  2.00560153 89798
ASTRA 5B                
1 39617U 14011B   26173.82051546  .00000140  00000+0  00000+0 0  9996
2 39617   0.0588 316.8259 0002128 114.1470 158.8818  1.00270350 44728
COSMOS 2492 [GLONASS-M] 
1 39620U 14012A   26173.49999056 -.00000075  00000+0  00000+0 0  9999
2 39620  65.2939 313.7548 0010217 323.4327  36.4899  2.13103084 95355
IRNSS-1B                
1 39635U 14017A   26173.75560031  .00000117  00000+0  00000+0 0  9992
2 39635  28.9065 240.3095 0023496 164.9008 193.0039  1.00268591 44840
LUCH-5V                 
1 39727U 14023A   26173.84648627 -.00000268  00000+0  00000+0 0  9997
2 39727   5.1476  69.6938 0002131  46.3792 194.4297  1.00272778 44415
NAVSTAR 70 (USA 251)    
1 39741U 14026A   26172.44904358 -.00000095  00000+0  00000+0 0  9995
2 39741  56.4961 331.3514 0038142 326.5023  33.2518  2.00560703 88625
COSMOS 2500 [GLONASS-M] 
1 40001U 14032A   26172.26192068 -.00000067  00000+0  00000+0 0  9999
2 40001  65.2298 313.5443 0007491 184.9913 174.9944  2.13105734 93543
NAVSTAR 71 (USA 256)    
1 40105U 14045A   26173.03942899 -.00000044  00000+0  00000+0 0  9994
2 40105  55.3562  88.2716 0033545 118.2165 242.1273  2.00558750 86179
GSAT0201 (GALILEO 5)    
1 40128U 14050A   26170.57286915 -.00000074  00000+0  00000+0 0  9994
2 40128  48.8729 273.3385 1674922 179.4838 180.7636  1.85520003 78366
GSAT0202 (GALILEO 6)    
1 40129U 14050B   26173.52330782 -.00000091  00000+0  00000+0 0  9994
2 40129  48.8862 272.3029 1676571 180.3279 179.5934  1.85520660 80584
IRNSS-1C                
1 40269U 14061A   26173.83228897 -.00000160  00000+0  00000+0 0  9995
2 40269   6.5315  88.8241 0022641   3.1186 201.6080  1.00268436 42742
NAVSTAR 72 (USA 258)    
1 40294U 14068A   26172.90896066 -.00000097  00000+0  00000+0 0  9995
2 40294  56.9908  30.7727 0067156  70.7865 289.9877  2.00576516 85300
COSMOS 2501 [GLONASS-K] 
1 40315U 14075A   26172.05477182  .00000072  00000+0  00000+0 0  9999
2 40315  63.6166 190.2381 0022627 212.5574 147.3441  2.13101228 89935
NAVSTAR 73 (USA 260)    
1 40534U 15013A   26173.54709584  .00000060  00000+0  00000+0 0  9991
2 40534  53.1676 203.9557 0109667  40.1740 320.6907  2.00551137 81934
GSAT0203 (GALILEO 7)    
1 40544U 15017A   26173.49205961 -.00000098  00000+0  00000+0 0  9992
2 40544  56.7854 341.4508 0002098 272.3017  87.6709  1.70476233 69296
GSAT0204 (GALILEO 8)    
1 40545U 15017B   26172.57469230 -.00000097  00000+0  00000+0 0  9991
2 40545  56.7944 341.4944 0002045 242.6592 117.3159  1.70475807 32321
